id,name,email,phone,website,address,city,state,zip_code,country,description,capacity,music_focus,venue_type,booking_notes,instagram_handle,facebook_url,is_verified,created_at,updated_at
124831f7-38c0-4b3c-b24a-b1f95267f842,The Pour House Music Hall,booking@pourhouseraleigh.com,null,null,null,Raleigh,NC,null,US,"Raleigh's home for all things music featuring local and nationally touring bands. 20+ years showcasing rock, soul, jazz, hip-hop and Americana. Over 1,000 bands perform annually.",null,"[""Rock"",""Jazz"",""Hip Hop"",""Americana"",""Indie""]",null,null,null,null,false,2025-11-16 22:30:50.645513+00,2025-11-16 22:30:50.645513+00
ed58a4fd-c942-4b0c-b983-06f7eec78985,Lincoln Theatre,info@lincolntheatre.com,null,null,null,Raleigh,NC,null,US,"Historic music venue in downtown Raleigh featuring diverse live music including rock, indie, and alternative. Intimate setting with great acoustics.",null,"[""Rock"",""Indie"",""Alternative""]",null,null,null,null,false,2025-11-16 22:30:50.645513+00,2025-11-16 22:30:50.645513+00
434090f2-e39f-4df8-89aa-eee78c88124a,The Ritz,booking@ritzraleigh.com,null,null,null,Raleigh,NC,null,US,"Popular 12,000-square-foot live music venue known for industrial-style space. Multiple bars, VIP seating. Hosts rock, hip-hop, and electronic music.",null,"[""Rock"",""Hip Hop"",""Electronic""]",null,null,null,null,false,2025-11-16 22:30:50.645513+00,2025-11-16 22:30:50.645513+00
8e23ece6-fe5c-4911-88c8-b6a3a3d38db7,Slims Downtown,slims@slimsraleigh.com,null,null,null,Raleigh,NC,null,US,Downtown Raleigh's oldest music venue (est. 1999). Authentic dive bar with 100-person capacity for intimate concerts. Weekly open mic nights and local acts.,null,"[""Rock"",""Indie"",""Folk"",""Punk""]",null,null,null,null,false,2025-11-16 22:30:50.645513+00,2025-11-16 22:30:50.645513+00
483d7240-a6bb-499e-b656-fd6b750d8fb1,Tin Roof,raleigh@tinroof.com,null,null,null,Raleigh,NC,null,US,"Live music every night featuring local, regional and national acts across all genres. Great food and drinks in a fun atmosphere.",null,"[""Rock"",""Country"",""Blues"",""Alternative""]",null,null,null,null,false,2025-11-16 22:30:50.645513+00,2025-11-16 22:30:50.645513+00
10d92ed0-5c65-4841-af5d-0f5abc4994db,Kings,booking@kings-raleigh.com,null,null,null,Raleigh,NC,null,US,Premier live music venue in downtown Raleigh. Known for eclectic programming and top-notch sound system. Hosts touring acts and local favorites.,null,"[""Rock"",""Indie"",""Electronic"",""Alternative""]",null,null,null,null,false,2025-11-16 22:30:50.645513+00,2025-11-16 22:30:50.645513+00
7e8b1540-0906-4fc0-948e-1e84138d2ddc,Red Hat Amphitheater,info@redhatamphitheater.com,null,null,null,Raleigh,NC,null,US,"Outdoor amphitheater in Glenwood South with 5,000 capacity. Premier venue for major touring artists in an intimate downtown setting.",null,"[""Rock"",""Country"",""Hip Hop"",""Alternative""]",null,null,null,null,false,2025-11-16 22:30:50.645513+00,2025-11-16 22:30:50.645513+00
35bff74f-3d97-4e4d-b9d8-6298bf4cae5f,Motorco Music Hall,booking@motorcomusic.com,null,null,null,Durham,NC,null,US,"Just outside Raleigh in Durham. Converted garage space with industrial vibe. Hosts indie, rock, and experimental music. Great local scene.",null,"[""Indie"",""Rock"",""Punk"",""Electronic""]",null,null,null,null,false,2025-11-16 22:30:50.645513+00,2025-11-16 22:30:50.645513+00
88c5118e-2923-444b-9cac-bae90aa2d1d4,The Maywood,info@themaywood.com,null,null,null,Raleigh,NC,null,US,Cozy neighborhood bar and music venue. Focus on local and regional acts. Great for emerging artists and intimate shows.,null,"[""Indie"",""Folk"",""Americana"",""Jazz""]",null,null,null,null,false,2025-11-16 22:30:50.645513+00,2025-11-16 22:30:50.645513+00
1963f54e-4127-48bd-b3d0-708a26f06774,Cats Cradle,booking@catscradle.com,null,null,null,Carrboro,NC,null,US,Legendary Triangle area venue (near Raleigh). Historic club that has hosted countless iconic acts. Essential stop for touring indie and alternative bands.,null,"[""Indie"",""Rock"",""Alternative"",""Punk""]",null,null,null,null,false,2025-11-16 22:30:50.645513+00,2025-11-16 22:30:50.645513+00
f0095e0a-2e17-45cf-9120-9a75d845020e,Pitt Street Brewing Company,null,null,null,null,Greenville,NC,27858,USA,"Housed in historic restored Coca-Cola bottling plant near ECU, traditional to experimental brews.",200,"[""Rock"",""Folk"",""Blues""]",brewery,null,null,null,false,2025-11-17 13:29:19.963379+00,2025-11-17 13:29:19.963379+00
338b5a41-bd0e-4664-95f2-3ce83e504472,The Ramkat,info@theramkat.com,336-754-9714,https://www.theramkat.com,170 W 9th Street,Winston-Salem,NC,27101,USA,"Two-level 11,670 sqft venue opened 2018, handicap-accessible with three bars. Upstairs Gas Hill lounge holds 100.",1000,"[""Rock"",""Indie"",""Hip-Hop"",""Electronic"",""Country""]",venue,"Mailing: PO Box 20333 Winston-Salem, NC 27120",null,https://www.facebook.com/theramkat,false,2025-11-17 13:29:19.963379+00,2025-11-17 13:29:19.963379+00
1091907b-a039-4747-9fc0-656ab62c7961,Foothills Brewing - Downtown Brewpub,hello@foothillsbrewing.com,336-777-3348,https://www.foothillsbrewing.com,638 W Fourth Street,Winston-Salem,NC,27101,USA,"Live music Wed-Sun nights. Wednesdays reserved for Bluegrass, Sundays for Jazz.",200,"[""Bluegrass"",""Jazz"",""Rock"",""Folk""]",brewery,"Mailing: P.O. Box 1687, Clemmons, NC 27012",null,null,false,2025-11-17 13:29:19.963379+00,2025-11-17 13:29:19.963379+00
ae422447-4445-476c-a9fc-0bb41a731d15,Foothills Brewing - Tasting Room,hello@foothillsbrewing.com,336-997-9484,https://www.foothillsbrewing.com,3800 Kimwell Drive,Winston-Salem,NC,27103,USA,Live music Friday-Saturday nights and Sunday afternoons.,250,"[""Rock"",""Country"",""Folk""]",brewery,null,null,null,false,2025-11-17 13:29:19.963379+00,2025-11-17 13:29:19.963379+00
da41a458-c9f0-4c00-be5d-20f59c68ab41,Carolina Theatre,null,336-333-2600,https://carolinatheatre.com,310 South Greene Street,Greensboro,NC,27401,USA,"Historic theatre with 793 orchestra seats and 302 mezzanine seats, available for rentals.",1130,"[""Classical"",""Jazz"",""Rock"",""Folk""]",other,"Box Office: Mon-Fri noon-3pm, 30 min before performances",null,null,false,2025-11-17 13:29:19.963379+00,2025-11-17 13:29:19.963379+00
c843d650-3f93-4fd3-83c2-666df7444454,Flat Iron,theflatironproduction@gmail.com,null,https://flatirongso.com,221 Summit Avenue,Greensboro,NC,27401,USA,"Live music venue and cocktail bar. Shows Tue-Sun, Wed and Sun reserved for residencies.",200,"[""Rock"",""Indie"",""Jazz"",""Blues""]",bar,Also email: abbeyspoon.flatiron@gmail.com,null,https://www.facebook.com/flatirongso,false,2025-11-17 13:29:19.963379+00,2025-11-17 13:29:19.963379+00
26ac0a59-992f-4931-a5e9-22a8203a3134,Hangar 1819,null,336-579-6480,https://hangar1819.com,null,Greensboro,NC,27403,USA,Live music venue with capacity up to 7 nights per week.,529,"[""Rock"",""Indie"",""Country"",""Electronic""]",venue,null,null,null,false,2025-11-17 13:29:19.963379+00,2025-11-17 13:29:19.963379+00
b55ba6cc-dc17-4fa5-961b-a17c63035bb0,Paddy's Irish Public House,null,910-568-5654,https://paddysirishpub.com,"2606 Raeford Road, Suite B",Fayetteville,NC,28303,USA,Award-winning Irish pub and premier music venue/dance club. Live music Thu-Sat.,200,"[""Rock"",""Country"",""Blues"",""Irish""]",bar,Hours: Wed-Sat 6pm-2am,null,https://www.facebook.com/paddyspubnc,false,2025-11-17 13:29:19.963379+00,2025-11-17 13:29:19.963379+00
257fee46-474f-451c-9e36-70482e8de879,Haw River Ballroom,Karina@hawriverballroom.com,336-525-2314,https://www.hawriverballroom.com,1711 Saxapahaw Bethlehem Church Road,Saxapahaw,NC,27340,USA,Riverside music venue in former Dye House of historic Saxapahaw mill village.,750,"[""Rock"",""Folk"",""Americana"",""Indie""]",venue,"Phone is Cup 22 box office, open 7am-5pm weekdays, 8am-5pm weekends",null,https://www.facebook.com/hawriverballroom,false,2025-11-17 13:29:19.963379+00,2025-11-17 13:29:19.963379+00
66cdb90e-5dbc-4798-b45d-a2349beea482,Koka Booth Amphitheatre,info@boothamp.com,919-462-2052,https://www.boothamphitheatre.com,8003 Regency Parkway,Cary,NC,27518,USA,"Premier outdoor performing arts venue by Symphony Lake, seating on lawn and Crescent Deck.",7000,"[""Classical"",""Rock"",""Pop"",""Country"",""Jazz""]",amphitheater,"Box Office: 919-462-2025, Tickets: 800-514-3849",null,https://www.facebook.com/BoothAmphitheatre,false,2025-11-17 13:29:19.963379+00,2025-11-17 13:29:19.963379+00
68c3f69f-fafb-4a01-9259-7e269a38240c,Salem Street Pub,null,null,https://www.salemstreetpub.com,null,Apex,NC,27502,USA,Family-owned pub featuring Saturday night live music in Moonshine Room.,100,"[""Rock"",""Country"",""Blues"",""Folk""]",restaurant,null,null,https://www.facebook.com/p/Salem-Street-Pub-100063627880342,false,2025-11-17 13:29:19.963379+00,2025-11-17 13:29:19.963379+00
02f88fc1-f649-4dd9-bfe9-00845bebb00a,Appalachian Theatre,null,null,null,559 W King Street,Boone,NC,28607,USA,Historic theatre in downtown Boone hosting concerts and performances.,629,"[""Folk"",""Bluegrass"",""Rock"",""Classical""]",other,null,null,null,false,2025-11-17 13:29:19.963379+00,2025-11-17 13:29:19.963379+00
d657385d-4aee-4396-9fae-464977b801f8,Schaefer Center for the Performing Arts,null,null,https://schaefercenter.appstate.edu,null,Boone,NC,28608,USA,Appalachian State University's premier performance venue with orchestra and balcony seating.,1664,"[""Classical"",""Jazz"",""World"",""Folk""]",other,null,null,null,false,2025-11-17 13:29:19.963379+00,2025-11-17 13:29:19.963379+00
0167341c-6f25-4793-bcbf-bdc65bd966ef,The Neon Rooster,booking@theneonrooster.com,null,https://www.theneonrooster.com,null,Aberdeen,NC,null,US,Local music venue and bar hosting live performances.,200,"[""original"",""covers""]",bar,null,null,null,true,2025-11-16 23:43:02.444908+00,2025-11-17 00:15:27.470343+00
ce7b2c02-21dd-41bb-93e2-52c23b764c76,Abbey Road Tavern & Grill,info@abbeyroadnc.com,919-267-9976,https://www.abbeyroadnc.com,null,Apex,NC,null,US,Restaurant and bar featuring live music on weekends.,150,"[""covers"",""rock"",""blues"",""country""]",bar,null,null,null,true,2025-11-16 23:43:02.444908+00,2025-11-17 00:15:27.470343+00
bec59e3d-1917-438a-94e2-dc3f56d8a979,Southern Peak Brewery,events@southernpeakbrewery.com,919-267-7766,https://www.southernpeakbrewery.com,null,Apex,NC,null,US,Craft brewery with outdoor stage hosting live music events.,150,"[""singer songwriter"",""indie"",""folk"",""acoustic""]",brewery,null,null,null,true,2025-11-16 23:43:02.444908+00,2025-11-17 00:15:27.470343+00
11a5f26d-5463-4408-ac80-7d6830af0ffc,Asheville Music Hall,booking@ashevillemusichall.com,828-772-2033,https://www.ashevillemusichall.com,null,Asheville,NC,null,US,Multi-level music venue in downtown Asheville featuring diverse acts.,500,"[""rock"",""jam band"",""bluegrass"",""original""]",venue,null,null,null,true,2025-11-16 23:43:02.444908+00,2025-11-17 00:15:27.470343+00
caffd7d9-cf22-442d-bef2-4264d33976c0,Eulogy (AVL),booking@eulogyavl.com,null,https://www.eulogyavl.com,null,Asheville,NC,null,US,Intimate venue and bar in West Asheville hosting local and touring acts.,200,"[""original"",""rock"",""blues"",""country"",""covers""]",bar,null,null,null,true,2025-11-16 23:43:02.444908+00,2025-11-17 00:15:27.470343+00
6bc94c59-4a2f-48e8-b59f-60563c083852,Blackbird Beer,info@blackbirdraleigh.com,null,https://www.blackbirdraleigh.com,null,Raleigh,NC,null,US,Beer garden and bar with live music in downtown Raleigh.,200,"[""original"",""singer songwriter""]",bar,null,null,null,true,2025-11-16 23:43:02.444908+00,2025-11-17 00:15:27.470343+00
3e4d23a1-7cb6-46d3-9191-9ae1e2f97699,The Fillmore Charlotte,FillmoreCLT.info@livenation.com,980-266-6454,https://www.fillmorenc.com,820 Hamilton Street,Charlotte,NC,28206,USA,"Multi-level music venue housed in a 100-year-old fiber mill, part of the NC Music Factory entertainment complex.",2000,"[""Rock"",""Alternative"",""Indie"",""Hip-Hop"",""Electronic""]",venue,Operated by Live Nation. Contact for private events and bookings.,@fillmorenc,https://www.facebook.com/FillmoreNC,false,2025-11-17 13:29:19.963379+00,2025-11-17 13:29:19.963379+00
342ca5b1-db1f-493c-b27c-b46bdfb68d67,Neighborhood Theatre,booking@neighborhoodtheatre.com,704-942-7997,https://neighborhoodtheatre.com,511 E 36th Street,Charlotte,NC,28205,USA,"Charlotte's premier independent music venue since 1997, located in the NoDa Art District with unique multi-tiered seating.",540,"[""Rock"",""Indie"",""Alternative"",""Hip-Hop"",""Electronic""]",venue,Email booking@neighborhoodtheatre.com for booking inquiries.,@neighborhoodtheatre,https://www.facebook.com/NeighborhoodTheatre,false,2025-11-17 13:29:19.963379+00,2025-11-17 13:29:19.963379+00
3a8ce4d3-65ef-4e55-8b68-6e210ca9bf9f,Amos' Southend,booking@amossouthend.com,704-595-7585,https://amossouthend.com,1423 S Tryon Street,Charlotte,NC,28203,USA,Popular live music venue in South End featuring local and touring artists.,400,"[""Rock"",""Country"",""Blues"",""Alternative"",""Indie""]",venue,Contact booking@amossouthend.com for booking opportunities.,@amossouthend,https://www.facebook.com/amossouthend,false,2025-11-17 13:29:19.963379+00,2025-11-17 13:29:19.963379+00
2142cc50-6dcb-469a-9e54-6105eeeb3ee1,The Evening Muse,booking@eveningmuse.com,704-376-3737,https://www.eveningmuse.com,3227 N Davidson Street,Charlotte,NC,28205,USA,"Intimate listening room in NoDa Arts District, specializing in original music across multiple genres.",120,"[""Folk"",""Americana"",""Blues"",""Jazz"",""Singer-Songwriter""]",venue,"Email with requested date and band name in subject line. Original bands only, no cover bands.",null,null,false,2025-11-17 13:29:19.963379+00,2025-11-17 13:29:19.963379+00
824d9bf1-7e75-4fc9-ac2a-31adde3e0ccd,Visulite Theatre,null,null,https://visulite.com,1615 Elizabeth Avenue,Charlotte,NC,28204,USA,Historic theatre in Elizabeth neighborhood with unique multi-tiered stage and seating arrangement.,540,"[""Rock"",""Indie"",""Alternative"",""Electronic""]",venue,null,null,null,false,2025-11-17 13:29:19.963379+00,2025-11-17 13:29:19.963379+00
9ef78be4-d128-4f71-ae00-af400aab425b,Snug Harbor,null,null,https://snugrock.com,null,Charlotte,NC,28205,USA,"Plaza Midwood live music club with pirate-themed decor, showcasing local talent since 2007.",150,"[""Rock"",""Alternative"",""Indie"",""Metal""]",bar,Shows typically start at 9 PM. Karaoke Thursdays and Sundays.,null,null,false,2025-11-17 13:29:19.963379+00,2025-11-17 13:29:19.963379+00
e322cb7c-f17e-415a-9270-b68cfe1aa9dc,Petra's Bar,null,null,https://petrasbar.com,1919 Commonwealth Avenue,Charlotte,NC,28203,USA,Piano bar and cabaret in Plaza Midwood featuring live piano performances.,100,"[""Piano Bar"",""Cabaret"",""Jazz""]",bar,null,@petrasbar,null,false,2025-11-17 13:29:19.963379+00,2025-11-17 13:29:19.963379+00
53d2e89d-662b-4d24-8bb5-c8a5748e73fb,NoDa Brewing Company,null,704-900-6851,https://www.nodabrewing.com,150 W 32nd Street,Charlotte,NC,28206,USA,"Award-winning brewery with spacious indoor/outdoor areas, featuring Live Music Fridays.",300,"[""Rock"",""Indie"",""Folk"",""Country""]",brewery,Regularly scheduled live music at North End location.,@nodabrewing,null,false,2025-11-17 13:29:19.963379+00,2025-11-17 13:29:19.963379+00
dd79d393-1587-4301-a492-b134e495a150,Triple C Brewing Company,null,null,https://www.triplecbrewing.com,null,Charlotte,NC,28203,USA,South End brewery featuring live music on Saturdays and open mic nights.,200,"[""Rock"",""Folk"",""Americana"",""Indie""]",brewery,Check website calendar for live music schedule.,null,null,false,2025-11-17 13:29:19.963379+00,2025-11-17 13:29:19.963379+00
cd53e3e3-3ee5-4aac-a416-cbe78ce9450d,Sycamore Brewing,null,null,https://sycamorebrewing.com,2161 Hawkins Street,Charlotte,NC,28203,USA,"21,000 square foot taproom with indoor and outdoor spaces hosting regular live music events.",450,"[""Rock"",""Indie"",""Electronic"",""Folk""]",brewery,null,null,null,false,2025-11-17 13:29:19.963379+00,2025-11-17 13:29:19.963379+00
a1dc9eab-7bc6-4cb4-a1ef-7cb720d41935,Protagonist Beer,null,null,https://protagonistbeer.com,null,Charlotte,NC,28205,USA,"NoDa brewery with production facility and New York style pizza, hosting live music events.",200,"[""Indie"",""Rock"",""Folk""]",brewery,null,null,null,false,2025-11-17 13:29:19.963379+00,2025-11-17 13:29:19.963379+00
c66541db-55fa-4d84-9dfe-dee91d61a9aa,Growlers Pourhouse,null,704-910-6566,https://growlerspourhouse.com,3120 North Davidson Street,Charlotte,NC,28205,USA,NoDa beer bar featuring craft beers and live music.,150,"[""Rock"",""Blues"",""Country""]",bar,null,null,https://www.facebook.com/GrowlersPourHouse,false,2025-11-17 13:29:19.963379+00,2025-11-17 13:29:19.963379+00
c0d1ca99-96dc-4e0b-9613-c02a5894efa4,QC Pour House,null,980-219-7303,https://www.qcpourhouse.com,200 W Tremont Avenue #101,Charlotte,NC,28203,USA,Craft beer bar featuring live music.,150,"[""Rock"",""Blues"",""Country""]",bar,null,null,https://www.facebook.com/qcpourhouse,false,2025-11-17 13:29:19.963379+00,2025-11-17 13:29:19.963379+00
cb4e7e13-b31d-40c5-a2e1-1cb40b536a75,The Comedy Zone,null,null,https://www.cltcomedyzone.com,900 N Carolina Music Factory Boulevard,Charlotte,NC,28206,USA,Full service comedy theater and special event facility in NC Music Factory basement.,400,"[""Comedy""]",other,null,null,null,false,2025-11-17 13:29:19.963379+00,2025-11-17 13:29:19.963379+00
c75fe069-ebd9-4c4b-858b-46d78db48111,U.S. National Whitewater Center,null,null,https://usnwc.org,5000 Whitewater Center Parkway,Charlotte,NC,28214,USA,Outdoor adventure center hosting free River Jam concerts Thursday-Saturday evenings May-September.,2000,"[""Americana"",""Bluegrass"",""Folk"",""Funk"",""Rock""]",amphitheater,"River Jam concerts 7-10 PM, parking $12.",null,null,false,2025-11-17 13:29:19.963379+00,2025-11-17 13:29:19.963379+00
c4dd24c9-db35-4367-a7e1-c80bfeb7366f,Cat's Cradle,booking@catscradle.com,919-967-9053,https://catscradle.com,300 E Main Street,Carrboro,NC,27510,USA,"Legendary independent music venue operating since 1969, less than a mile from UNC Chapel Hill campus.",750,"[""Rock"",""Indie"",""Alternative"",""Punk"",""Electronic""]",venue,ONLY accept booking via email to booking@catscradle.com,null,null,false,2025-11-17 13:29:19.963379+00,2025-11-17 13:29:19.963379+00
849220e1-1e26-49aa-8159-757596340226,Local 506,booking@local506.com,919-942-5506,https://local506.com,506 W Franklin Street,Chapel Hill,NC,27516,USA,Dedicated live music venue operating since 1992 in downtown Chapel Hill.,200,"[""Rock"",""Indie"",""Alternative"",""Punk""]",venue,Call after 7 PM. Email booking@local506.com or glenn@local506.com,null,https://www.facebook.com/Local506,false,2025-11-17 13:29:19.963379+00,2025-11-17 13:29:19.963379+00
f85ea1f6-1477-4508-bab9-a0b9e1fe83c7,The Cave,null,984-234-0293,https://caverntavern.com,452 1/2 W Franklin Street,Chapel Hill,NC,27516,USA,"Chapel Hill's oldest bar and music venue, established 1968, featuring music almost nightly.",150,"[""Rock"",""Indie"",""Alternative"",""Punk""]",bar,null,null,null,false,2025-11-17 13:29:19.963379+00,2025-11-17 13:29:19.963379+00
66a630cc-183d-4c0e-b980-49c4876eee35,He's Not Here,henry@southendentertains.com,null,https://hesnotherenc.com,null,Chapel Hill,NC,27516,USA,"Chapel Hill's legendary bar, home of the Blue Cup, with live music on weekends.",200,"[""Rock"",""Pop"",""Country""]",bar,Contact henry@southendentertains.com for bookings.,null,null,false,2025-11-17 13:29:19.963379+00,2025-11-17 13:29:19.963379+00
81c505e3-0338-42b1-8a0e-3c83ef39717c,Top of the Hill,null,919-929-8676,https://www.thetopofthehill.com,100 East Franklin Street,Chapel Hill,NC,27514,USA,Restaurant and brewery featuring live music in their Back Bar venue.,150,"[""Rock"",""Jazz"",""Blues""]",restaurant,null,null,null,false,2025-11-17 13:29:19.963379+00,2025-11-17 13:29:19.963379+00
6dccc9f9-ae73-4d6f-afbb-6941b2d6a027,Bynum Front Porch,null,919-542-0394,http://www.bynumfrontporch.org,950 Bynum Road,Bynum,NC,27228,USA,"Music series, storytelling, and bluegrass jam sessions at historic general store.",100,"[""Bluegrass"",""Folk"",""Americana"",""Storytelling""]",other,null,null,null,false,2025-11-17 13:29:19.963379+00,2025-11-17 13:29:19.963379+00
2e25cf4d-b9ea-4702-bd8f-966c338e980c,The ArtsCenter,info@artscenterlive.org,919-929-2787,https://artscenterlive.org,400 Roberson Street,Carrboro,NC,27510,USA,"501(c)(3) Arts Education non-profit with two performance spaces, art gallery, and year-round programming.",355,"[""Jazz"",""Folk"",""World"",""Classical""]",other,Earl & Rhoda Wynn Theater: 355 capacity; West End Theater: 106 capacity,null,https://www.facebook.com/theartscentercarrboro,false,2025-11-17 13:29:19.963379+00,2025-11-17 13:29:19.963379+00
c085dc9f-6725-481d-9abe-2ac25a6f7f2c,Red Hat Amphitheater,null,null,https://www.redhatamphitheater.com,500 South McDowell Street,Raleigh,NC,27601,USA,"Major outdoor amphitheater adjacent to Raleigh Convention Center. 1,800 fixed seats, 2,700 movable seats, lawn for 1,000.",5990,"[""Rock"",""Pop"",""Hip-Hop"",""Alternative"",""Country""]",amphitheater,null,null,null,false,2025-11-17 13:29:19.963379+00,2025-11-17 13:29:19.963379+00
26a6457a-ae10-4ac9-ae7c-16b01a765578,The Pour House Music Hall,null,919-821-1120,https://pourhouseraleigh.com,224 S Blount Street,Raleigh,NC,27601,USA,"Record shop by day, live music venue by night in Moore Square Art District.",400,"[""Metal"",""Alternative Rock"",""Jam Bands"",""Indie""]",venue,null,@thepourhouse,https://www.facebook.com/thepourhousemusichall,false,2025-11-17 13:29:19.963379+00,2025-11-17 13:29:19.963379+00
589dca5c-f065-47b1-bda9-dbe9a1c9c4bc,Lincoln Theatre,null,919-821-4111,https://lincolntheatre.com,126 E Cabarrus Street,Raleigh,NC,27601,USA,Historic downtown Raleigh music venue featuring diverse live music and events.,500,"[""Rock"",""Hip-Hop"",""Electronic"",""Indie""]",venue,null,null,null,false,2025-11-17 13:29:19.963379+00,2025-11-17 13:29:19.963379+00
544b59e9-59f6-4d74-af9b-6b68b154c710,Kings,booking@kingsraleigh.com,null,https://www.kingsraleigh.com,14 W Martin Street,Raleigh,NC,27601,USA,"Multi-use venue for live music, performances, movies, and events.",265,"[""Indie"",""Rock"",""Electronic"",""Hip-Hop""]",bar,null,null,null,false,2025-11-17 13:29:19.963379+00,2025-11-17 13:29:19.963379+00
3a467c60-ef37-4433-aaaf-9501a90e156d,Neptune's Parlour,null,919-896-7063,null,"14 W Martin Street, Basement",Raleigh,NC,27601,USA,"Intimate basement cocktail bar underneath Garland, oriented towards DJs and recorded music.",100,"[""DJ"",""Electronic""]",bar,null,null,null,false,2025-11-17 13:29:19.963379+00,2025-11-17 13:29:19.963379+00
7bd040aa-1a18-4b58-b674-3def68e471a4,Slim's Downtown,null,null,https://slimsraleigh.com,227 S Wilmington Street,Raleigh,NC,27601,USA,"Downtown Raleigh's oldest music venue since 1999, intimate dive bar atmosphere.",100,"[""Rock"",""Punk"",""Metal"",""Indie""]",bar,Open mic with live band on Tuesdays.,@slims_tagrams,https://www.facebook.com/SlimsRaleigh,false,2025-11-17 13:29:19.963379+00,2025-11-17 13:29:19.963379+00
caa86910-a48f-498e-950f-826d6b319325,Transfer Co. Ballroom,null,null,https://www.transfercoballroom.com,500 E Davie Street,Raleigh,NC,27601,USA,Live music venue attached to Transfer Co. Food Hall in historic Carolina Coach Garage.,350,"[""Rock"",""Indie"",""Electronic"",""Hip-Hop""]",venue,null,null,https://www.facebook.com/TransferCoBallroom,false,2025-11-17 13:29:19.963379+00,2025-11-17 13:29:19.963379+00
e2c0b816-718e-422c-a2b4-0af43828ded7,Watts and Ward,null,null,https://www.wattsandward.com,200 S Blount Street,Raleigh,NC,27601,USA,"1920s speakeasy-inspired cocktail bar with three authentic bars, can hold 300 inside or 380 with courtyard.",380,"[""Jazz"",""Blues""]",bar,null,@wattsandward,https://www.facebook.com/wattsandward,false,2025-11-17 13:29:19.963379+00,2025-11-17 13:29:19.963379+00
b7a5a569-35ea-432f-8927-d8c40ca4c0f7,Brewery Bhavana,null,null,https://brewerybhavana.com,null,Raleigh,NC,27601,USA,"Four-in-one concept: brewery, dim sum restaurant, flower shop, and bookstore with occasional live music.",200,"[""Jazz"",""Folk"",""Indie""]",brewery,null,@brewerybhavana,https://www.facebook.com/brewerybhavana,false,2025-11-17 13:29:19.963379+00,2025-11-17 13:29:19.963379+00
df2cbe15-edb0-4501-8ef8-6bfa591db482,Crank Arm Brewing,null,null,https://crankarmbrewing.com,319 W Davie Street,Raleigh,NC,27601,USA,"Warehouse District brewery combining bikes and beer, hosts run clubs, cycling clubs, trivia nights, and music events.",200,"[""Rock"",""Indie"",""Folk""]",brewery,null,null,null,false,2025-11-17 13:29:19.963379+00,2025-11-17 13:29:19.963379+00
80dd1cbc-7762-49f3-b679-4d714feee45a,Motorco Music Hall,showinfo@motorcomusic.com,919-901-0875,https://motorcomusic.com,723 Rigsbee Avenue,Durham,NC,27701,USA,"Former midcentury car dealership converted to music venue, essential to revitalization of industrial Durham.",450,"[""Rock"",""Indie"",""Hip-Hop"",""Electronic""]",venue,Email is best way to communicate.,@motorcomh,null,false,2025-11-17 13:29:19.963379+00,2025-11-17 13:29:19.963379+00
b849695d-5cbf-4de6-b4f4-26e55674563d,The Fruit,durhamfruit@gmail.com,null,https://www.durhamfruit.com,305 S Dillard Street,Durham,NC,27701,USA,"22,000 sqft warehouse complex, voted 'Best Place to Dance' in Triangle, multi-stage concert and arts venue.",500,"[""Electronic"",""Hip-Hop"",""Dance"",""Indie""]",venue,null,null,https://www.facebook.com/305sdillardst,false,2025-11-17 13:29:19.963379+00,2025-11-17 13:29:19.963379+00
17783a77-57ca-4833-ac17-3b25942ed844,The Pinhook,null,null,null,117 W Main Street,Durham,NC,27701,USA,"Durham's premier live music and event space with great sound, stage lighting, projector, and live-stream capabilities.",250,"[""Indie"",""Rock"",""Punk"",""Electronic""]",venue,null,null,null,false,2025-11-17 13:29:19.963379+00,2025-11-17 13:29:19.963379+00
510dd0ff-515c-4699-9210-1a635175ea84,Rubies on Five Points,null,919-381-4349,https://rubiesnc.com,347B W Main Street,Durham,NC,27701,USA,"Live music venue, bar and event space in downtown Durham.",90,"[""Jazz"",""Blues"",""Rock"",""Indie""]",bar,null,null,null,false,2025-11-17 13:29:19.963379+00,2025-11-17 13:29:19.963379+00
7ddace13-0dfa-412c-9ebe-d62c45caf459,Bull City Ciderworks,Durham.Taproom@BullCityCiderworks.com,919-237-2357,https://bullcityciderworks.com,305 S Roxboro Street,Durham,NC,27701,USA,Cidery taproom hosting regular events and live music throughout the year.,150,"[""Folk"",""Indie"",""Acoustic""]",winery,Check Facebook and Instagram for event updates.,null,null,false,2025-11-17 13:29:19.963379+00,2025-11-17 13:29:19.963379+00
4c3948a3-9ccd-4d36-91fc-8c9b156e5539,Cocoa Cinnamon,Engage@CocoaCinnamon.com,919-697-8990,https://cocoacinnamon.square.site,420 West Geer Street,Durham,NC,27701,USA,Coffee shop occasionally hosting live music and community events.,75,"[""Jazz"",""Folk"",""Acoustic""]",coffee_shop,null,null,https://www.facebook.com/CCHillsboroughRoad,false,2025-11-17 13:29:19.963379+00,2025-11-17 13:29:19.963379+00
2a266472-f2e1-4780-87af-fbc10af29c60,The Orange Peel,info@theorangepeel.net,828-398-1837,https://theorangepeel.net,101 Biltmore Avenue,Asheville,NC,28801,USA,"Named one of top 5 rock clubs in nation by Rolling Stone, premier Asheville music venue since reopening in 2002.",1050,"[""Rock"",""Indie"",""Hip-Hop"",""Electronic"",""Bluegrass""]",venue,National Booking: AC Entertainment - info@acentertainment.com,@the_orange_peel,https://www.facebook.com/TheOrangePeelAsheville,false,2025-11-17 13:29:19.963379+00,2025-11-17 13:29:19.963379+00
8c723225-9a65-40c3-8e35-7c241bfb7bf2,Grey Eagle,null,828-232-5800,https://www.thegreyeagle.com,185 Clingman Avenue,Asheville,NC,28801,USA,"Asheville's longest-running all-ages venue in River Arts District, features roomy outdoor patio.",550,"[""Bluegrass"",""Folk"",""Rock"",""Americana"",""Jazz""]",venue,250 seated / 550 SRO capacity,@thegreyeagle,https://facebook.com/greyeagleasheville,false,2025-11-17 13:29:19.963379+00,2025-11-17 13:29:19.963379+00
3889461d-5d3f-4d1c-ba6a-9409b4832e92,Highland Brewing Company,null,828-299-3370,https://highlandbrewing.com,"12 Old Charlotte Highway, Suite 200",Asheville,NC,28803,USA,"Asheville's original craft brewery with indoor/outdoor stages, live music 5x per week.",450,"[""Rock"",""Bluegrass"",""Folk"",""Americana""]",brewery,Features 2 stages - indoor and outdoor meadow. Space for thousands of visitors.,null,https://www.facebook.com/HighlandBrewingCompany,false,2025-11-17 13:29:19.963379+00,2025-11-17 13:29:19.963379+00
dc9efb80-a6ea-421e-8d19-859969f21f5c,Avalon Pier,null,null,https://avalonpier.com,null,Kill Devil Hills,NC,27948,USA,"Outer Banks pier offering live music on select evenings, serving vacationers for over 60 years.",300,"[""Rock"",""Country"",""Beach Music"",""Blues""]",other,null,null,https://www.facebook.com/avalonpier,false,2025-11-17 13:29:19.963379+00,2025-11-17 13:29:19.963379+00
731b57f6-787f-490f-9045-735270cf3168,Salvage Station,null,828-407-0521,https://salvagestation.com,466 Riverside Drive,Asheville,NC,28801,USA,Outdoor music venue in River Arts District. Currently closed due to Hurricane Helene damage and I-26 connector project.,500,"[""Rock"",""Bluegrass"",""Jam Bands"",""Folk""]",venue,Venue currently closed. Contact for future booking information.,null,https://www.facebook.com/SalvageStation,false,2025-11-17 13:29:19.963379+00,2025-11-17 13:29:19.963379+00
736a596a-19d3-46da-a3db-7c4732dd6d2e,Wortham Center for the Performing Arts,info@worthamarts.org,828-257-4530,https://www.worthamarts.org,18 Biltmore Avenue,Asheville,NC,28801,USA,"Three-venue complex in Pack Square: Diana Wortham Theatre, Tina McGuire Theatre, Henry LaBrun Studio.",500,"[""Classical"",""Jazz"",""World"",""Folk""]",other,null,null,https://www.facebook.com/worthamarts,false,2025-11-17 13:29:19.963379+00,2025-11-17 13:29:19.963379+00
fd7ca5c1-21dd-4233-8b7f-aedba4085054,Eulogy at Burial Beer,info@eulogyavl.com,null,https://eulogyavl.com,10 Buxton Avenue,Asheville,NC,28801,USA,"Mid-sized live music venue by Burial Beer Co., full bar with cocktails, beer, wine, non-alcoholic options.",400,"[""Rock"",""Indie"",""Electronic"",""Hip-Hop""]",venue,null,@eulogyavl,https://www.facebook.com/eulogyavl,false,2025-11-17 13:29:19.963379+00,2025-11-17 13:29:19.963379+00
b2bd3a38-fd1c-491b-bd70-bdb92261750e,The Orange Peel,booking@theorangepeel.net,828-225-5851,https://www.theorangepeel.net,null,Asheville,NC,null,US,Legendary Asheville music venue that has hosted countless national acts. Known for its intimate setting and excellent sound quality.,1050,"[""rock"",""indie"",""alternative"",""jam band"",""original""]",venue,null,null,null,true,2025-11-16 23:43:02.444908+00,2025-11-17 00:15:27.470343+00
fcfc65b7-8cfd-4f1a-a16c-b1073a386e97,Steel String Brewery,info@steelstringbrewery.com,919-240-7215,https://www.steelstringbrewery.com,null,Carrboro,NC,null,US,Craft brewery with regular live music performances.,125,"[""singer songwriter"",""indie"",""folk"",""acoustic""]",brewery,null,null,null,true,2025-11-16 23:43:02.444908+00,2025-11-17 00:15:27.470343+00
b6e10b6b-21b0-48a5-afff-e87933eaa09f,Bond Bros.,events@bondbrothersbeer.com,919-342-2739,https://www.bondbrothersbeer.com,null,Cary,NC,null,US,Original Bond Brothers location with live music and food trucks.,200,"[""singer songwriter"",""indie"",""folk"",""acoustic""]",brewery,null,null,null,true,2025-11-16 23:43:02.444908+00,2025-11-17 00:15:27.470343+00
68c132da-8970-4a5d-a1b6-9ae7ad00fd89,Bond Brothers Eastside,events@bondbrothersbeer.com,919-342-2739,https://www.bondbrothersbeer.com,null,Cary,NC,null,US,Eastside location of Bond Brothers featuring live music and events.,200,"[""singer songwriter"",""indie"",""folk"",""acoustic""]",brewery,null,null,null,true,2025-11-16 23:43:02.444908+00,2025-11-17 00:15:27.470343+00
91e31189-89a4-4035-8357-4bef95a15455,Fortnight Brewing,info@fortnightbrewing.com,919-373-1161,https://www.fortnightbrewing.com,null,Cary,NC,null,US,Craft brewery with outdoor space hosting live music.,150,"[""singer songwriter"",""indie"",""folk"",""acoustic""]",brewery,null,null,null,true,2025-11-16 23:43:02.444908+00,2025-11-17 00:15:27.470343+00
e999ab41-a22f-467d-a4d4-f4336dc6dff5,The Cary Theater,info@thecarytheater.com,919-462-2051,https://www.thecarytheater.com,null,Cary,NC,null,US,"Historic downtown theater hosting concerts, films, and performing arts.",300,"[""original"",""covers""]",venue,null,null,null,true,2025-11-16 23:43:02.444908+00,2025-11-17 00:15:27.470343+00
edded298-bd35-4601-b51c-2f7f40c276e3,Fridays on the Front Porch (Carolina Inn),events@carolinainn.com,919-918-2777,https://www.carolinainn.com,null,Chapel Hill,NC,null,US,Weekly outdoor concert series at historic Carolina Inn.,200,"[""singer songwriter"",""rock"",""indie"",""alternative"",""original""]",venue,null,null,null,true,2025-11-16 23:43:02.444908+00,2025-11-17 00:15:27.470343+00
64193236-6848-4b90-817f-c61c140eb4a9,Amos' Southend,booking@amossouthend.com,704-377-6874,https://www.amossouthend.com,null,Charlotte,NC,null,US,Southend music venue and restaurant featuring regional and national acts.,500,"[""original"",""covers""]",bar,null,null,null,true,2025-11-16 23:43:02.444908+00,2025-11-17 00:15:27.470343+00
ea448a41-3b00-4c14-a009-3a5e4791ab26,Evening Muse,info@eveningmuse.com,704-376-3737,https://www.eveningmuse.com,null,Charlotte,NC,null,US,Intimate listening room in NoDa featuring singer-songwriters and small acts.,150,"[""singer songwriter"",""rock"",""indie"",""alternative"",""original""]",venue,null,null,null,true,2025-11-16 23:43:02.444908+00,2025-11-17 00:15:27.470343+00
4ca411f7-9a97-4dcc-8f32-b0c0a5b5782b,Neighborhood Theatre,booking@neighborhoodtheatre.com,704-358-9298,https://www.neighborhoodtheatre.com,null,Charlotte,NC,null,US,"Mid-sized venue in Charlotte's NoDa arts district. Has been a staple of the Charlotte music scene for decades, hosting touring and local acts.",1000,"[""rock"",""indie"",""metal"",""punk"",""original""]",venue,null,null,null,true,2025-11-16 23:43:02.444908+00,2025-11-17 00:15:27.470343+00
7b44888e-26d4-4e46-b755-a619f7f05fcf,The Music Yard,booking@themusicyard.com,704-445-9273,https://www.themusicyard.com,null,Charlotte,NC,null,US,Outdoor music venue with covered stage and full bar.,400,"[""original"",""covers""]",bar,null,null,null,true,2025-11-16 23:43:02.444908+00,2025-11-17 00:15:27.470343+00
8f4ee7e7-080a-4a1f-b523-581935a42730,Visulite Theater,info@visulitetheatre.com,704-358-9200,https://www.visulitetheatre.com,null,Charlotte,NC,null,US,Historic theater in Elizabeth neighborhood hosting concerts and events.,700,"[""original"",""rock"",""indie"",""alternative""]",venue,null,null,null,true,2025-11-16 23:43:02.444908+00,2025-11-17 00:15:27.470343+00
28a1455a-18e0-44c6-af31-ce68c1e97c84,First Street Tavern,info@firststreettavern.com,null,https://www.firststreettavern.com,null,Clayton,NC,null,US,Local tavern featuring live music and community events.,150,"[""singer songwriter"",""rock"",""blues"",""country"",""covers""]",bar,null,null,null,true,2025-11-16 23:43:02.444908+00,2025-11-17 00:15:27.470343+00
833489c6-fe21-4a9f-a1ac-fafdbfa1dc54,Boatyard,events@boatyardlkn.com,704-896-9266,https://www.boatyardlkn.com,null,Cornelius,NC,null,US,Lakeside restaurant and bar with live music on the waterfront.,200,"[""covers"",""rock"",""indie"",""alternative"",""original""]",venue,null,null,null,true,2025-11-16 23:43:02.444908+00,2025-11-17 00:15:27.470343+00
920b8d80-7929-4f26-8950-85c3c5bd9acd,Clouds Brewing,info@cloudsbrewing.com,919-682-2568,https://www.cloudsbrewing.com,null,Durham,NC,null,US,Downtown Durham brewery with regular live music and food options.,200,"[""singer songwriter"",""indie"",""folk"",""acoustic""]",brewery,null,null,null,true,2025-11-16 23:43:02.444908+00,2025-11-17 00:15:27.470343+00
9c1aaef3-fd5a-430b-9cbf-4eb937d0c959,Durham Beer Garden,info@durhambeergarden.com,null,https://www.durhambeergarden.com,null,Durham,NC,null,US,Outdoor beer garden with live music and rotating food trucks.,300,"[""singer songwriter"",""rock"",""indie"",""alternative"",""original""]",venue,null,null,null,true,2025-11-16 23:43:02.444908+00,2025-11-17 00:15:27.470343+00
c825222c-2c19-4a8e-b830-0235cdd4435c,Glass Jug Beer Lab,events@glassjugbeerlab.com,919-680-8466,https://www.glassjugbeerlab.com,null,Durham,NC,null,US,Craft brewery in downtown Durham hosting live music and events.,150,"[""original"",""singer songwriter""]",brewery,null,null,null,true,2025-11-16 23:43:02.444908+00,2025-11-17 00:15:27.470343+00
404ed402-2ec3-4fdb-9ec5-9b94c8ea925d,Growler Grlz,info@growlergrlz.com,null,https://www.growlergrlz.com,null,Durham,NC,null,US,Craft beer bar and bottle shop with live music events.,100,"[""singer songwriter"",""rock"",""blues"",""country"",""covers""]",bar,null,null,null,true,2025-11-16 23:43:02.444908+00,2025-11-17 00:15:27.470343+00
6bc14caa-3495-4a0d-b2a3-07e81ab651ed,Motorco,artist@motorcomusic.com,919.901.0875,https://motorcomusic.com/,null,Durham,NC,null,US,"Premier music hall in Durham featuring multiple spaces including a showroom, garage bar, and outdoor patio. Full bar and restaurant with diverse programming.",400,"[""rock"",""indie"",""alternative"",""original""]",bar,null,null,null,true,2025-11-16 23:43:02.444908+00,2025-11-17 00:15:27.470343+00
e523507d-26e2-421b-a4ef-ada338ed0cf9,The Streets at Southpoint (Music on Main),events@streetsatsouthpoint.com,919-572-8808,https://www.streetsatsouthpoint.com,null,Durham,NC,null,US,Outdoor concert series at shopping center featuring local and regional acts.,500,"[""original"",""covers""]",venue,null,null,null,true,2025-11-16 23:43:02.444908+00,2025-11-17 00:15:27.470343+00
d1d04b23-709b-46e4-a8e2-fc395779a431,Zinchouse,info@zinchouse.com,(833) 494-9463,https://www.zinchouse.com/,null,Durham,NC,null,US,"Experience the best of the Triangle winery and brewery good times at ZincHouse, nestled on 87 acres of vineyards and treetop views, offering adults 21+a wide beverage selection of 400+ exquisite wines, our own ZincHouse and local brewery’s craft beers, and a robust offering of bourbon and cigars. The story of our farm and vision continues and grows in 2024!

Open Wednesday – Sunday and featuring live music and food trucks, ZincHouse is the best of good times in the Triangle. See our FAQs.

Step inside one of the three floors of our main building – the ZincHouse. Or sit on the Veranda near the vineyards and take in the beauty, Next door at the beautiful Pavilion, a music stage and the Z-House of Bourbon & Cigar Bar awaits. Two smoking verandas outside the back also feature firepits and the same captivating views. Our Carriage House, nestled in privacy, hosts public dinners, tastings and events.

Our calendar is updated monthly with our live music, food trucks, ticketed events and festivals.
Welcome to ZincHouse. The Triangle areas premier destination.",null,"[""original"",""covers""]",bar,null,null,null,true,2025-11-16 23:43:02.444908+00,2025-11-17 00:15:27.470343+00
6d8354e1-5b8b-4490-a44b-64c1161aa055,Mason Jar Lager Company,events@masonjarlagers.com,919-552-0550,https://www.masonjarlagers.com,null,Fuquay-Varina,NC,null,US,Lager-focused brewery with outdoor space for live music.,200,"[""singer songwriter"",""indie"",""folk"",""acoustic""]",brewery,null,null,null,true,2025-11-16 23:43:02.444908+00,2025-11-17 00:15:27.470343+00
bb4ecd4e-cd58-4532-ba92-83bc6e2d7efa,Dirty Dan's Bar,booking@dirtydansbar.com,null,https://www.facebook.com/dirtydansbar,null,Greensboro,NC,null,US,Dive bar and music venue hosting local and touring acts.,250,"[""original"",""rock"",""blues"",""country"",""covers""]",bar,null,null,null,true,2025-11-16 23:43:02.444908+00,2025-11-17 00:15:27.470343+00
3d4696ac-e750-4e27-a41e-454f6eddab40,Flat Iron,booking@flatirongreensboro.com,null,https://www.flatirongreensboro.com,null,Greensboro,NC,null,US,Downtown Greensboro venue featuring local and regional music.,250,"[""original"",""rock"",""blues"",""country"",""covers""]",bar,null,null,null,true,2025-11-16 23:43:02.444908+00,2025-11-17 00:15:27.470343+00
4d123bd8-372e-42e5-8851-2b28cd407c9a,The Grand GSO,info@thegrandgso.com,336-272-4663,https://www.thegrandgso.com,null,Greensboro,NC,null,US,Historic theater in downtown Greensboro hosting concerts and events.,1000,"[""tribute"",""rock"",""indie"",""alternative"",""original""]",venue,null,null,null,true,2025-11-16 23:43:02.444908+00,2025-11-17 00:15:27.470343+00
56b8be49-3427-4c85-a128-755c378c5fe0,AJ McMurphy's,info@ajmcmurphys.com,252-551-9627,https://www.ajmcmurphys.com,null,Greenville,NC,null,US,Irish pub and restaurant with live music on weekends.,250,"[""singer songwriter"",""covers""]",bar,null,null,null,true,2025-11-16 23:43:02.444908+00,2025-11-17 00:15:27.470343+00
1a336edc-758f-45d1-9676-0724cb88a269,Buccaneer Music Hall,booking@buccaneermusichall.com,null,https://www.buccaneermusichall.com,null,Greenville,NC,null,US,Mid-sized venue hosting national and regional touring acts.,700,"[""original"",""covers""]",venue,null,null,null,true,2025-11-16 23:43:02.444908+00,2025-11-17 00:15:27.470343+00
313c31a1-4d73-40c0-9ff5-229c67879ea6,Pantana Bob's,info@pantanabobs.com,252-757-1777,https://www.pantanabobs.com,null,Greenville,NC,null,US,College town bar featuring live music and DJ nights.,350,"[""covers"",""rock"",""blues"",""country""]",bar,null,null,null,true,2025-11-16 23:43:02.444908+00,2025-11-17 00:15:27.470343+00
78b13aa0-5659-4bea-b09d-aca633c01b0d,State Theatre,info@statetheatrenc.com,252-208-7779,https://www.statetheatrenc.com,null,Greenville,NC,null,US,"Historic theater hosting concerts, comedy, and special events.",500,"[""original"",""covers""]",venue,null,null,null,true,2025-11-16 23:43:02.444908+00,2025-11-17 00:15:27.470343+00
2bde05f1-7e65-4177-85a6-80b4bd709422,Dirtbag Ales,events@dirtbagales.com,910-426-9016,https://www.dirtbagales.com,null,Hope Mills,NC,null,US,Craft brewery with outdoor space hosting live music and food trucks.,200,"[""singer songwriter"",""indie"",""folk"",""acoustic""]",brewery,null,null,null,true,2025-11-16 23:43:02.444908+00,2025-11-17 00:15:27.470343+00
1e9a9ca9-8246-48bd-8d86-81ba0669ab76,Baxter's 1892,info@baxters1892.com,252-638-5595,https://www.baxters1892.com,null,New Bern,NC,null,US,Historic restaurant and bar with live music in downtown New Bern.,150,"[""singer songwriter"",""rock"",""indie"",""alternative"",""original""]",venue,null,null,null,true,2025-11-16 23:43:02.444908+00,2025-11-17 00:15:27.470343+00
ba5bb92d-5256-4208-90bc-1ff5d69f3fa7,The Brown Pelican,info@thebrownpelican.com,252-637-2525,https://www.thebrownpelican.com,null,New Bern,NC,null,US,Waterfront bar featuring live music and outdoor seating.,200,"[""singer songwriter"",""rock"",""blues"",""country"",""covers""]",bar,null,null,null,true,2025-11-16 23:43:02.444908+00,2025-11-17 00:15:27.470343+00
744ff280-1203-4348-8a14-8e8d930ca0f5,Drum and Quill,booking@drumandquill.com,null,https://www.drumandquill.com,null,Pinehurst,NC,null,US,Intimate venue in historic Pinehurst hosting singer-songwriters and small acts.,125,"[""singer songwriter"",""rock"",""blues"",""country"",""covers""]",bar,null,null,null,true,2025-11-16 23:43:02.444908+00,2025-11-17 00:15:27.470343+00
872e5188-ff92-46bd-bac7-3e5cb8d6fa57,BMC Brewing,events@bmcbrewing.com,919-533-9977,https://www.bmcbrewing.com,null,Pittsboro,NC,null,US,Craft brewery with live music and food truck events.,150,"[""singer songwriter"",""indie"",""folk"",""acoustic""]",brewery,null,null,null,true,2025-11-16 23:43:02.444908+00,2025-11-17 00:15:27.470343+00
8395fa7b-9a94-4397-ac1d-2ceafa7e0265,Bowstring,booking@bowstringraleigh.com,919-803-0520,https://www.bowstringraleigh.com,null,Raleigh,NC,null,US,Intimate music venue in downtown Raleigh featuring singer-songwriters.,150,"[""singer songwriter"",""rock"",""blues"",""country"",""covers""]",bar,null,null,null,true,2025-11-16 23:43:02.444908+00,2025-11-17 00:15:27.470343+00
40cc6872-c4eb-44ba-80a2-e12e81be858c,Compass Rose Brewery,events@compassrosebrewery.com,919-803-2290,https://www.compassrosebrewery.com,null,Raleigh,NC,null,US,Craft brewery in North Raleigh with live music events.,200,"[""singer songwriter"",""indie"",""folk"",""acoustic""]",brewery,null,null,null,true,2025-11-16 23:43:02.444908+00,2025-11-17 00:15:27.470343+00
e98cbb9e-dd53-4b8b-b13a-54b59f951ae8,Gizmo Brew Works,events@gizmobrewworks.com,919-251-9381,https://www.gizmobrewworks.com,null,Raleigh,NC,null,US,Craft brewery in Five Points with regular live music.,200,"[""original"",""singer songwriter""]",brewery,null,null,null,true,2025-11-16 23:43:02.444908+00,2025-11-17 00:15:27.470343+00
70381293-1343-44bb-a432-efaa70939ee5,Kings,info@kingsraleigh.com,919-719-8611,https://www.kingsraleigh.com,null,Raleigh,NC,null,US,Downtown Raleigh venue and restaurant featuring live music and DJ nights.,600,"[""original"",""covers""]",bar,null,null,null,true,2025-11-16 23:43:02.444908+00,2025-11-17 00:15:27.470343+00
88cc8f0d-41d5-4d8d-8a5c-148d03de76a5,Lincoln Theatre,info@lincolntheatre.com,919-821-4111,https://www.lincolntheatre.com,null,Raleigh,NC,null,US,Historic theater in downtown Raleigh featuring diverse programming from concerts to comedy. Beautifully restored venue with excellent acoustics and classic architecture.,700,"[""rock"",""indie"",""folk"",""jazz"",""original""]",venue,null,null,null,true,2025-11-16 23:43:02.444908+00,2025-11-17 00:15:27.470343+00
1c344467-6d2f-4d03-a709-347d08f0f0a9,Raleigh Brewing Company,events@raleighbrewingcompany.com,919-803-7887,https://www.raleighbrewingcompany.com,null,Raleigh,NC,null,US,Craft brewery with outdoor beer garden hosting live music.,300,"[""singer songwriter"",""indie"",""folk"",""acoustic""]",brewery,null,null,null,true,2025-11-16 23:43:02.444908+00,2025-11-17 00:15:27.470343+00
09e9a0a1-d663-43cc-afe6-11d9391b2cfb,Tap Yard,events@tapyardraleigh.com,null,https://www.tapyardraleigh.com,null,Raleigh,NC,null,US,Outdoor beer garden and event space with live music.,400,"[""covers"",""rock"",""indie"",""alternative"",""original""]",venue,null,null,null,true,2025-11-16 23:43:02.444908+00,2025-11-17 00:15:27.470343+00
ca9ed90b-157e-4b0a-9838-d46453ea466d,New Belgium Brewing,null,828-333-6900,https://www.newbelgium.com/visit/asheville,21 Craven Street,Asheville,NC,28806,USA,"Large brewery along French Broad River in River Arts District, regular live music events.",300,"[""Rock"",""Folk"",""Americana"",""Bluegrass""]",brewery,Free 90-minute brewery tours require reservations.,null,null,false,2025-11-17 13:29:19.963379+00,2025-11-17 13:29:19.963379+00
f19f5157-c28c-49a9-a3d5-43f0b0cfb6df,The Pour House,booking@thepourhousemusichall.com,919-821-1120,https://www.thepourhousemusichall.com,null,Raleigh,NC,null,US,"Iconic Raleigh music venue operating since 1993. Known for hosting both emerging and established artists across rock, indie, and alternative genres. Features a full bar, stage, and intimate atmosphere.",600,"[""rock"",""indie"",""alternative"",""punk"",""original""]",bar,null,null,null,true,2025-11-16 23:43:02.444908+00,2025-11-17 00:15:27.470343+00
ea78c632-2e45-49c1-9341-c72bd1c2f3c4,Tin Roof,raleigh@tinroof.com,919-747-4930,https://www.tinroof.com/raleigh,null,Raleigh,NC,null,US,Live music venue and restaurant featuring local and touring acts.,500,"[""original"",""covers""]",bar,null,null,null,true,2025-11-16 23:43:02.444908+00,2025-11-17 00:15:27.470343+00
8148acde-4e35-4503-8e59-cb2cdcc9f653,Transfer Co Ballroom,booking@transfercoballroom.com,919-900-5070,https://www.transfercoballroom.com,null,Raleigh,NC,null,US,"Stunning historic ballroom venue in downtown Raleigh. Features soaring ceilings, elegant architecture, and hosts concerts, weddings, and special events.",900,"[""rock"",""indie"",""electronic"",""original""]",venue,null,null,null,true,2025-11-16 23:43:02.444908+00,2025-11-17 00:15:27.470343+00
f1b512d7-c9cd-4d6f-954e-ea207dd471cb,Westin Raleigh (Rooftop),events@westinraleigh.com,null,https://www.marriott.com/hotels/travel/rduwi-the-westin-raleigh-durham-airport-brier-creek,null,Raleigh,NC,null,US,Rooftop venue at downtown Westin hotel with live music events.,200,"[""singer songwriter"",""rock"",""indie"",""alternative"",""original""]",venue,null,null,null,true,2025-11-16 23:43:02.444908+00,2025-11-17 00:15:27.470343+00
dc0c076b-3222-4365-ad15-91f82ae173be,Whiskey Rose,booking@whiskeyroseraleigh.com,null,https://www.whiskeyroseraleigh.com,null,Raleigh,NC,null,US,Dive bar in downtown Raleigh hosting local and touring rock acts.,250,"[""original"",""covers""]",bar,null,null,null,true,2025-11-16 23:43:02.444908+00,2025-11-17 00:15:27.470343+00
456a3926-3155-4dc7-a939-4e2951c19a52,Rocky Mount Mills,events@rockymountmills.com,252-883-1140,https://www.rockymountmills.com,null,Rocky Mount,NC,null,US,Historic mill complex hosting concerts and community events.,500,"[""singer songwriter"",""rock"",""indie"",""alternative"",""original""]",venue,null,null,null,true,2025-11-16 23:43:02.444908+00,2025-11-17 00:15:27.470343+00
1172535d-c2ce-4af7-8658-8fbd3f5fef29,Lonerider Brewing,events@loneriderbeer.com,919-442-4699,https://www.loneriderbeer.com,null,Wake Forest,NC,null,US,Large craft brewery with outdoor stage and event space.,300,"[""original"",""covers""]",brewery,null,null,null,true,2025-11-16 23:43:02.444908+00,2025-11-17 00:15:27.470343+00
f193e671-63cb-428c-8d03-838222938e17,Real McCoy's,info@realmccoyswf.com,null,https://www.realmccoyswf.com,null,Wake Forest,NC,null,US,Bar and grill featuring live music on weekends.,200,"[""covers"",""rock"",""blues"",""country""]",bar,null,null,null,true,2025-11-16 23:43:02.444908+00,2025-11-17 00:15:27.470343+00
3c32d910-3550-4307-86cb-e4aa58a9edcd,White Street Brewing,events@whitestreetbrewing.com,919-570-9700,https://www.whitestreetbrewing.com,null,Wake Forest,NC,null,US,Downtown Wake Forest brewery with live music and food trucks.,200,"[""singer songwriter"",""indie"",""folk"",""acoustic""]",brewery,null,null,null,true,2025-11-16 23:43:02.444908+00,2025-11-17 00:15:27.470343+00
38376475-fdf2-423c-b8b9-518cb6ac7a24,Backwater Jacks Tiki Bar and Grill,info@backwaterjacks.com,252-975-1828,https://www.backwaterjacks.com,null,Washington,NC,null,US,Waterfront tiki bar with live music and outdoor seating.,200,"[""original"",""covers""]",bar,null,null,null,true,2025-11-16 23:43:02.444908+00,2025-11-17 00:15:27.470343+00
1c55bdce-bb4a-4251-a7c7-ce0756c834c9,The Mulberry House,info@themulberryhousenc.com,null,https://www.themulberryhousenc.com,null,Washington,NC,null,US,Historic restaurant featuring live music in downtown Washington.,125,"[""singer songwriter"",""rock"",""indie"",""alternative"",""original""]",venue,null,null,null,true,2025-11-16 23:43:02.444908+00,2025-11-17 00:15:27.470343+00
12dcd823-5aa5-420d-8b72-ad6516246d3f,Bearded Bee Brewing,events@beardedbeebrewing.com,919-404-9663,https://www.beardedbeebrewing.com,null,Wendell,NC,null,US,Craft brewery with outdoor space hosting live music events.,200,"[""singer songwriter"",""indie"",""folk"",""acoustic""]",brewery,null,null,null,true,2025-11-16 23:43:02.444908+00,2025-11-17 00:15:27.470343+00
6af4038a-fe49-4911-9c66-8cd8df469286,The Ramkat,booking@theramkat.com,336-793-0700,https://www.theramkat.com,null,Winston-Salem,NC,null,US,Premier music venue in Winston-Salem hosting national and regional acts.,900,"[""original"",""rock"",""indie"",""alternative""]",venue,null,null,null,true,2025-11-16 23:43:02.444908+00,2025-11-17 00:15:27.470343+00
dab1217f-f3d1-4f6a-9b1e-9bed83a2ab25,Ziggy's,booking@ziggysrocks.com,336-480-8326,https://www.ziggysrocks.com,null,Winston-Salem,NC,null,US,Legendary Winston-Salem venue featuring rock and alternative music.,700,"[""original"",""rock"",""blues"",""country"",""covers""]",bar,null,null,null,true,2025-11-16 23:43:02.444908+00,2025-11-17 00:15:27.470343+00
41d3a190-c93d-4abb-8f19-b3b0f093969b,The Funkatorium,funkatorium@wickedweedbrewing.com,828-552-3203,https://www.wickedweedbrewing.com/location/funkatorium,147 Coxe Avenue,Asheville,NC,28801,USA,"Wicked Weed's sour and funky beer dedicated taproom in South Slope, East Coast's first sour beer taproom.",150,"[""Jazz"",""Funk"",""Soul""]",brewery,null,null,null,false,2025-11-17 13:29:19.963379+00,2025-11-17 13:29:19.963379+00
21765da1-dd45-431d-9ac7-15ca57344d34,One World Brewing West,null,828-575-9992,https://oneworldbrewing.com,520 Haywood Road,Asheville,NC,28806,USA,"West Asheville brewery with spacious outdoor stage, seating, and bar area.",200,"[""Rock"",""Folk"",""Bluegrass""]",brewery,null,@oneworldbrewing,https://www.facebook.com/oneworldbrewingwest,false,2025-11-17 13:29:19.963379+00,2025-11-17 13:29:19.963379+00
db0d096b-f709-4274-880b-2c8ab08f92e0,Pisgah Brewing Company,null,null,https://www.pisgahbrewing.com,null,Black Mountain,NC,28711,USA,"Brewery with indoor taproom stages and outdoor concert venue, extensive event programming.",500,"[""Bluegrass"",""Rock"",""Jam Bands"",""Folk""]",brewery,Currently booking for 2025 outdoor Spring & Summer concerts.,null,null,false,2025-11-17 13:29:19.963379+00,2025-11-17 13:29:19.963379+00
d158895b-8f30-47b1-b57b-4569a6f1e45e,Biltmore Winery,null,null,https://www.biltmore.com/visit/winery,null,Asheville,NC,28803,USA,"America's most visited winery on Biltmore Estate, live music on Scholar's Walk and Friday afternoons.",300,"[""Jazz"",""Classical"",""Folk""]",winery,40th Anniversary in 2025. Open 365 days a year.,null,null,false,2025-11-17 13:29:19.963379+00,2025-11-17 13:29:19.963379+00
1ea19d26-eac4-4257-8d39-4be4795f3e2c,Bourgie Nights,wilmington.unplugged@gmail.com,910-763-5252,null,127 Princess Street,Wilmington,NC,28401,USA,Intimate listening room lounge hosting traveling and local musicians.,100,"[""Folk"",""Jazz"",""Blues"",""Singer-Songwriter""]",venue,null,null,https://www.facebook.com/bourgienights,false,2025-11-17 13:29:19.963379+00,2025-11-17 13:29:19.963379+00
371d6470-e714-4a9e-93d0-db4c34a6d80b,Reggie's 42nd Street Tavern,null,null,null,1415 S 42nd Street,Wilmington,NC,28403,USA,Live music venue with full bar and dance floor in heart of Wilmington.,200,"[""Rock"",""Blues"",""Country""]",bar,null,null,null,false,2025-11-17 13:29:19.963379+00,2025-11-17 13:29:19.963379+00
a7839169-78ef-48ab-bf07-207074bb8fe2,Dead Crow Comedy Room,null,null,https://www.deadcrowcomedy.com,511 N 3rd Street,Wilmington,NC,28401,USA,"Comedy room sharing space with Lush Garden Bar, relocated to Third Street in 2021.",150,"[""Comedy""]",other,null,null,null,false,2025-11-17 13:29:19.963379+00,2025-11-17 13:29:19.963379+00
34934365-7e47-45e4-9f21-2fbabfdbbd33,Greenfield Lake Amphitheater,null,null,https://www.greenfieldlakeamphitheater.com,1941 Amphitheater Drive,Wilmington,NC,28401,USA,"Recently renovated outdoor venue surrounded by cypress trees and pines, 180 degrees of water views.",1200,"[""Rock"",""Country"",""Pop"",""Blues""]",amphitheater,Available for rental through Live Nation. Free parking.,null,null,false,2025-11-17 13:29:19.963379+00,2025-11-17 13:29:19.963379+00
3dd5d63e-6e72-40d9-afc0-cfa296f47701,Brooklyn Arts Center,null,null,null,null,Wilmington,NC,28401,USA,"Renovated 1888 church hosting musical concerts, events and festivals year-round.",250,"[""Jazz"",""Classical"",""Folk"",""World""]",other,null,null,null,false,2025-11-17 13:29:19.963379+00,2025-11-17 13:29:19.963379+00
43efcb44-f060-4659-96f6-6c2c46bc0f0b,Uptown Brewing Company,null,null,null,null,Greenville,NC,27858,USA,Spacious taproom brewing traditional to innovative beers.,200,"[""Rock"",""Country"",""Blues""]",brewery,null,null,null,false,2025-11-17 13:29:19.963379+00,2025-11-17 13:29:19.963379+00
3c070f18-ab34-4774-b415-de2ba7dfde4f,The Chelsea,null,null,https://www.thechelsea.com,null,New Bern,NC,28560,USA,"Historic 1912 gathering place featuring live music, mezzanine bar overlooks main dining and music.",150,"[""Jazz"",""Blues"",""Rock""]",restaurant,null,null,null,false,2025-11-17 13:29:19.963379+00,2025-11-17 13:29:19.963379+00
6498c040-f71e-416a-bc6a-c94b6f7aadea,Persimmons Waterfront Restaurant,null,null,https://www.persimmonsrestaurant.net,null,New Bern,NC,28560,USA,"Waterfront restaurant featuring live music, modern American cuisine on banks of Neuse River.",150,"[""Jazz"",""Blues"",""Acoustic""]",restaurant,null,null,null,false,2025-11-17 13:29:19.963379+00,2025-11-17 13:29:19.963379+00
58a1f61e-4205-47c3-822b-6f7854273a4d,Limelight,null,null,https://limelightjville.com,null,Jacksonville,NC,28540,USA,"Jacksonville's largest dance floor, 4 bars, large stage, VIP seating, live concerts and in-house DJ.",800,"[""Rock"",""Hip-Hop"",""Electronic"",""Country""]",venue,null,null,null,false,2025-11-17 13:29:19.963379+00,2025-11-17 13:29:19.963379+00
b34089d7-50f2-47e9-80d4-1962dab68028,Hickory Premier,null,null,https://www.hickorypremier.com,null,Hickory,NC,28601,USA,"8,000 sqft indoor venue with bar, state of art sound and lighting.",600,"[""Rock"",""Country"",""Hip-Hop""]",venue,null,null,null,false,2025-11-17 13:29:19.963379+00,2025-11-17 13:29:19.963379+00
a2f85d09-5c02-4d4b-98e6-d9c13afb10a2,Olde Hickory Tap Room,null,828-322-1965,https://oldehickorytaproom.com,222 Union Square,Hickory,NC,28601,USA,Taproom featuring live music events.,150,"[""Rock"",""Blues"",""Country""]",brewery,null,null,null,false,2025-11-17 13:29:19.963379+00,2025-11-17 13:29:19.963379+00